STARLINK-32483          
1 61856U 24202M   26068.52349862  .00000449  00000+0  25849-4 0  9995
2 61856  43.0034 238.8052 0001323 272.4638  87.6062 15.27569381 75313
FLOCK 4G-6              
1 62660U 25009BD  26068.71061311  .00012261  00000+0  45910-3 0  9991
2 62660  97.3980 150.7943 0002380 348.2637  11.8546 15.27432125121307
